OBJECT_NAME,OBJECT_ID,EPOCH,MEAN_MOTION,ECCENTRICITY,INCLINATION,RA_OF_ASC_NODE,ARG_OF_PERICENTER,MEAN_ANOMALY,EPHEMERIS_TYPE,CLASSIFICATION_TYPE,NORAD_CAT_ID,ELEMENT_SET_NO,REV_AT_EPOCH,BSTAR,MEAN_MOTION_DOT,MEAN_MOTION_DDOT
GSAT-7,2013-044B,2026-06-10T13:38:17.491200,1.00270464,.00030813,0.0664,98.7490,189.0446,249.6945,0,U,39234,999,4519,0,-.59E-6,0
AMOS-4,2013-045A,2026-06-10T13:36:02.707200,1.00271689,.00025395,0.0390,92.3728,325.8354,109.7272,0,U,39237,999,4689,0,.25E-6,0
AEHF-3 (USA 246),2013-050A,2026-06-10T11:18:38.724192,1.00270920,.00877633,5.2779,67.2451,188.0647,48.8929,0,U,39256,999,4558,0,.45E-6,0
ASTRA 2E,2013-056A,2026-06-10T13:25:26.224320,1.00269033,.00026963,0.0640,326.2043,114.3929,48.1901,0,U,39285,999,4635,0,.168E-5,0
FM-6,2013-058A,2026-06-08T15:06:37.024416,1.00255605,.00027713,0.0107,82.6412,69.5183,215.1325,0,U,39360,999,4598,0,.3E-7,0
RADUGA-1M 3,2013-062A,2026-06-10T00:04:38.629632,1.00272613,.0001461,5.9386,72.4431,265.7163,316.3586,0,U,39375,999,4603,0,.169E-5,0
SES-8,2013-071A,2026-06-10T14:48:12.265632,1.00269605,.00027637,0.0288,280.9598,165.9832,129.0819,0,U,39460,999,4436,0,-.252E-5,0
INMARSAT 5-F1,2013-073A,2026-06-09T11:55:26.891328,1.00271530,.00004521,0.0176,8.6429,313.1528,177.5648,0,U,39476,999,4550,0,.45E-6,0
TKSAT-1 (TUPAC KATARI),2013-075A,2026-06-10T12:52:34.369824,1.00271504,.00024746,0.0315,158.5852,270.9034,295.3718,0,U,39481,999,4553,0,-.177E-5,0
GSAT-14,2014-001A,2026-06-10T13:38:17.491200,1.00270760,.0000984,0.0170,31.1939,252.4497,253.8548,0,U,39498,999,4531,0,-.59E-6,0
THAICOM 6,2014-002A,2026-06-09T10:17:22.028352,1.00269478,.00045175,0.0849,104.9062,359.5049,26.2248,0,U,39500,999,4538,0,-.103E-5,0
TDRS 12,2014-004A,2026-06-10T11:23:09.786912,1.00269207,.00029438,3.9703,18.9696,198.2067,171.5410,0,U,39504,999,4421,0,-.255E-5,0
ABS-2,2014-006A,2026-06-10T10:58:38.906400,1.00271205,.00039888,0.0360,80.2166,345.2264,72.9675,0,U,39508,999,4521,0,-.69E-6,0
ATHENA-FIDUS,2014-006B,2026-06-09T04:57:44.737056,1.00270971,.0001428,0.0437,101.5707,352.5836,275.6670,0,U,39509,999,4500,0,.171E-5,0
TURKSAT 4A,2014-007A,2026-06-10T13:29:25.840896,1.00270945,.00013783,0.0493,297.1277,24.7018,181.4396,0,U,39522,999,4490,0,.164E-5,0
EXPRESS-AT1,2014-010A,2026-06-10T16:07:01.468128,1.00302247,.00038768,0.2392,85.7817,37.6528,78.9488,0,U,39612,999,4475,0,.48E-6,0
EXPRESS-AT2,2014-010B,2026-06-10T13:33:25.458336,1.00270838,.0000144,0.0139,299.4463,31.7783,187.0539,0,U,39613,999,4443,0,.96E-6,0
AMAZONAS 4A,2014-011A,2026-06-10T12:56:19.010688,1.00272327,.00037861,0.0636,196.1032,271.6308,271.2516,0,U,39616,999,4464,0,-.235E-5,0
ASTRA 5B,2014-011B,2026-06-10T13:24:11.344032,1.00270726,.00019534,0.0529,323.1110,104.5245,55.8212,0,U,39617,999,4460,0,.154E-5,0
IRNSS-1B,2014-017A,2026-06-09T20:57:27.250848,1.00274052,.00229837,28.9342,240.5292,189.3707,197.7737,0,U,39635,999,4472,0,.122E-5,0
LUCH-5V,2014-023A,2026-06-10T03:28:34.682304,1.00266717,.00027976,5.1149,69.8220,35.5646,299.9192,0,U,39727,999,4428,0,-.251E-5,0
KAZSAT-3,2014-023B,2026-06-10T13:34:10.386336,1.00271028,.00000713,0.0282,53.1694,16.0615,91.7258,0,U,39728,999,4239,0,.78E-6,0
EUTELSAT 3B,2014-030A,2026-06-10T08:09:58.559040,1.00272718,.00038921,0.0612,0.0693,79.7428,304.4970,0,U,39773,999,4399,0,.37E-6,0
ASIASAT 8 (AMOS-7),2014-046A,2026-06-10T15:20:45.131136,1.00269594,.0001243,0.0035,355.2019,93.0639,146.2442,0,U,40107,999,10208,0,-.315E-5,0
ASIASAT 6,2014-052A,2026-06-10T15:34:18.412608,1.00267966,.00006434,0.0210,2.5645,103.1669,146.7585,0,U,40141,999,4301,0,0,0
OPTUS 10,2014-054A,2026-06-10T05:08:38.958720,1.00271517,.0002034,0.0944,313.3059,122.6678,55.7612,0,U,40146,999,4296,0,-.13E-5,0
MEASAT-3B,2014-054B,2026-06-10T12:00:53.669088,1.00271935,.00031395,0.0508,50.2929,19.6244,100.6649,0,U,40147,999,4284,0,-.224E-5,0
HIMAWARI-8,2014-060A,2026-06-10T12:14:54.731616,1.00270181,.00007713,0.0116,308.5204,158.1107,116.6315,0,U,40267,999,4269,0,-.258E-5,0
IRNSS-1C,2014-061A,2026-06-10T08:33:10.751616,1.00270410,.00226688,6.5011,89.0585,1.6512,19.3150,0,U,40269,999,4262,0,-.145E-5,0
INTELSAT 30 (IS-30),2014-062A,2026-06-10T00:51:42.732864,1.00267059,.00008212,0.0228,41.0330,352.5032,142.6782,0,U,40271,999,672,0,-.132E-5,0
ARSAT 1,2014-062B,2026-06-10T07:49:00.568992,1.00269469,.00016776,0.0154,12.2199,65.3390,226.5692,0,U,40272,999,4255,0,-.242E-5,0
