GSAT-7                  
1 39234U 13044B   26161.56825800 -.00000059  00000+0  00000+0 0  9996
2 39234   0.0664  98.7490 0003081 189.0446 249.6945  1.00270464 45192
AMOS-4                  
1 39237U 13045A   26161.56669800  .00000025  00000+0  00000+0 0  9998
2 39237   0.0390  92.3728 0002539 325.8354 109.7272  1.00271689 46897
AEHF-3 (USA 246)        
1 39256U 13050A   26161.47128153  .00000045  00000+0  00000+0 0  9998
2 39256   5.2779  67.2451 0087763 188.0647  48.8929  1.00270920 45580
ASTRA 2E                
1 39285U 13056A   26161.55933130  .00000168  00000+0  00000+0 0  9990
2 39285   0.0640 326.2043 0002696 114.3929  48.1901  1.00269033 46356
FM-6                    
1 39360U 13058A   26159.62959519  .00000003  00000+0  00000+0 0  9998
2 39360   0.0107  82.6412 0002771  69.5183 215.1325  1.00255605 45982
RADUGA-1M 3             
1 39375U 13062A   26161.00322488  .00000169  00000+0  00000+0 0  9996
2 39375   5.9386  72.4431 0001461 265.7163 316.3586  1.00272613 46030
SES-8                   
1 39460U 13071A   26161.61680863 -.00000252  00000+0  00000+0 0  9996
2 39460   0.0288 280.9598 0002763 165.9832 129.0819  1.00269605 44361
INMARSAT 5-F1           
1 39476U 13073A   26160.49683902  .00000045  00000+0  00000+0 0  9996
2 39476   0.0176   8.6429 0000452 313.1528 177.5648  1.00271530 45509
TKSAT-1 (TUPAC KATARI)  
1 39481U 13075A   26161.53650891 -.00000177  00000+0  00000+0 0  9998
2 39481   0.0315 158.5852 0002474 270.9034 295.3718  1.00271504 45534
GSAT-14                 
1 39498U 14001A   26161.56825800 -.00000059  00000+0  00000+0 0  9992
2 39498   0.0170  31.1939 0000984 252.4497 253.8548  1.00270760 45314
THAICOM 6               
1 39500U 14002A   26160.42872718 -.00000103  00000+0  00000+0 0  9991
2 39500   0.0849 104.9062 0004517 359.5049  26.2248  1.00269478 45385
TDRS 12                 
1 39504U 14004A   26161.47441883 -.00000255  00000+0  00000+0 0  9996
2 39504   3.9703  18.9696 0002943 198.2067 171.5410  1.00269207 44212
ABS-2                   
1 39508U 14006A   26161.45739475 -.00000069  00000+0  00000+0 0  9990
2 39508   0.0360  80.2166 0003988 345.2264  72.9675  1.00271205 45219
ATHENA-FIDUS            
1 39509U 14006B   26160.20676779  .00000171  00000+0  00000+0 0  9993
2 39509   0.0437 101.5707 0001428 352.5836 275.6670  1.00270971 45009
TURKSAT 4A              
1 39522U 14007A   26161.56210464  .00000164  00000+0  00000+0 0  9996
2 39522   0.0493 297.1277 0001378  24.7018 181.4396  1.00270945 44902
EXPRESS-AT1             
1 39612U 14010A   26161.67154477  .00000048  00000+0  00000+0 0  9994
2 39612   0.2392  85.7817 0003876  37.6528  78.9488  1.00302247 44753
EXPRESS-AT2             
1 39613U 14010B   26161.56487799  .00000096  00000+0  00000+0 0  9992
2 39613   0.0139 299.4463 0000144  31.7783 187.0539  1.00270838 44439
AMAZONAS 4A             
1 39616U 14011A   26161.53910892 -.00000235  00000+0  00000+0 0  9994
2 39616   0.0636 196.1032 0003786 271.6308 271.2516  1.00272327 44641
ASTRA 5B                
1 39617U 14011B   26161.55846463  .00000154  00000+0  00000+0 0  9998
2 39617   0.0529 323.1110 0001953 104.5245  55.8212  1.00270726 44606
IRNSS-1B                
1 39635U 14017A   26160.87323207  .00000122  00000+0  00000+0 0  9999
2 39635  28.9342 240.5292 0022983 189.3707 197.7737  1.00274052 44728
LUCH-5V                 
1 39727U 14023A   26161.14484586 -.00000251  00000+0  00000+0 0  9991
2 39727   5.1149  69.8220 0002797  35.5646 299.9192  1.00266717 44280
KAZSAT-3                
1 39728U 14023B   26161.56539799  .00000078  00000+0  00000+0 0  9991
2 39728   0.0282  53.1694 0000071  16.0615  91.7258  1.00271028 42399
EUTELSAT 3B             
1 39773U 14030A   26161.34026110  .00000037  00000+0  00000+0 0  9998
2 39773   0.0612   0.0693 0003892  79.7428 304.4970  1.00272718 43997
ASIASAT 8 (AMOS-7)      
1 40107U 14046A   26161.63941124 -.00000315  00000+0  00000+0 0  9991
2 40107   0.0035 355.2019 0001243  93.0639 146.2442  1.00269594102087
ASIASAT 6               
1 40141U 14052A   26161.64882422  .00000000  00000+0  00000+0 0  9992
2 40141   0.0210   2.5645 0000643 103.1669 146.7585  1.00267966 43017
OPTUS 10                
1 40146U 14054A   26161.21433980 -.00000130  00000+0  00000+0 0  9998
2 40146   0.0944 313.3059 0002034 122.6678  55.7612  1.00271517 42960
MEASAT-3B               
1 40147U 14054B   26161.50062117 -.00000224  00000+0  00000+0 0  9995
2 40147   0.0508  50.2929 0003139  19.6244 100.6649  1.00271935 42842
HIMAWARI-8              
1 40267U 14060A   26161.51035569 -.00000258  00000+0  00000+0 0  9994
2 40267   0.0116 308.5204 0000771 158.1107 116.6315  1.00270181 42693
IRNSS-1C                
1 40269U 14061A   26161.35637444 -.00000145  00000+0  00000+0 0  9994
2 40269   6.5011  89.0585 0022668   1.6512  19.3150  1.00270410 42628
INTELSAT 30 (IS-30)     
1 40271U 14062A   26161.03591126 -.00000132  00000+0  00000+0 0  9995
2 40271   0.0228  41.0330 0000821 352.5032 142.6782  1.00267059  6725
ARSAT 1                 
1 40272U 14062B   26161.32570103 -.00000242  00000+0  00000+0 0  9992
2 40272   0.0154  12.2199 0001677  65.3390 226.5692  1.00269469 42553
